[{"OBJECT_NAME":"STARLINK-35049","OBJECT_ID":"2025-194L","EPOCH":"2026-03-09T12:44:06.889056","MEAN_MOTION":15.05663466,"ECCENTRICITY":0.0002185,"INCLINATION":97.6019,"RA_OF_ASC_NODE":284.2328,"ARG_OF_PERICENTER":82.4381,"MEAN_ANOMALY":277.7094,"EPHEMERIS_TYPE":0,"CLASSIFICATION_TYPE":"U","NORAD_CAT_ID":65444,"ELEMENT_SET_NO":999,"REV_AT_EPOCH":2962,"BSTAR":0.00012815303,"MEAN_MOTION_DOT":1.789e-5,"MEAN_MOTION_DDOT":0},{"OBJECT_NAME":"CZ-4C DEB","OBJECT_ID":"2016-049F","EPOCH":"2026-03-09T07:30:38.295072","MEAN_MOTION":14.98603573,"ECCENTRICITY":0.00676497,"INCLINATION":98.3214,"RA_OF_ASC_NODE":204.4397,"ARG_OF_PERICENTER":163.6943,"MEAN_ANOMALY":196.6477,"EPHEMERIS_TYPE":0,"CLASSIFICATION_TYPE":"U","NORAD_CAT_ID":43601,"ELEMENT_SET_NO":999,"REV_AT_EPOCH":61767,"BSTAR":0.0021508763,"MEAN_MOTION_DOT":0.00027067,"MEAN_MOTION_DDOT":0}]
